{"type": "FeatureCollection", "features": [ {"type": "Feature", "properties": {"norad_id": 31715, "name": "FENGYUN 1C DEB", "group": "fengyun-1c-debris", "lat": 19.730504666625706, "lon": 177.32197626140112, "alt_km": 705.7197840561548, "timestamp": "2025-12-17T09:00:17.432143+00:00", "meta": {"OBJECT_NAME": "FENGYUN 1C DEB", "OBJECT_ID": "1999-025CDN", "EPOCH": "2025-12-16T06:27:17.275680", "MEAN_MOTION": 14.52195341, "ECCENTRICITY": 0.01870816, "INCLINATION": 99.2931, "RA_OF_ASC_NODE": 179.4646, "ARG_OF_PERICENTER": 108.9438, "MEAN_ANOMALY": 253.2134, "EPHEMERIS_TYPE": 0, "CLASSIFICATION_TYPE": "U", "NORAD_CAT_ID": 31715, "ELEMENT_SET_NO": 999, "REV_AT_EPOCH": 61768, "BSTAR": 0.00058161742, "MEAN_MOTION_DOT": 2.905e-05, "MEAN_MOTION_DDOT": 0}, "tle": {"line1": "1 31715U 99025CDN 25350.26894995  .00002905  00000+0  58162-3 0  9999", "line2": "2 31715  99.2931 179.4646 0187081 108.9438 253.2134 14.52195341617680"}}, "geometry": {"type": "Point", "coordinates": [177.32197626140112, 19.730504666625706]}}, {"type": "Feature", "properties": {"norad_id": 31716, "name": "FENGYUN 1C DEB", "group": "fengyun-1c-debris", "lat": -55.16591283006142, "lon": 57.5869573708051, "alt_km": 975.9016368889079, "timestamp": "2025-12-17T09:00:17.432155+00:00", "meta": {"OBJECT_NAME": "FENGYUN 1C DEB", "OBJECT_ID": "1999-025CDP", "EPOCH": "2025-12-15T05:18:38.953152", "MEAN_MOTION": 14.03618298, "ECCENTRICITY": 0.0130607, "INCLINATION": 98.5573, "RA_OF_ASC_NODE": 248.0547, "ARG_OF_PERICENTER": 84.2692, "MEAN_ANOMALY": 73.4304, "EPHEMERIS_TYPE": 0, "CLASSIFICATION_TYPE": "U", "NORAD_CAT_ID": 31716, "ELEMENT_SET_NO": 999, "REV_AT_EPOCH": 94154, "BSTAR": 0.0011158929, "MEAN_MOTION_DOT": 1.85e-05, "MEAN_MOTION_DDOT": 0}, "tle": {"line1": "1 31716U 99025CDP 25349.22128418  .00001850  00000+0  11159-2 0  9996", "line2": "2 31716  98.5573 248.0547 0130607  84.2692  73.4304 14.03618298941541"}}, "geometry": {"type": "Point", "coordinates": [57.5869573708051, -55.16591283006142]}}, {"type": "Feature", "properties": {"norad_id": 31720, "name": "FENGYUN 1C DEB", "group": "fengyun-1c-debris", "lat": 77.51513822113832, "lon": -142.2142704391849, "alt_km": 585.2974932599027, "timestamp": "2025-12-17T09:00:17.432165+00:00", "meta": {"OBJECT_NAME": "FENGYUN 1C DEB", "OBJECT_ID": "1999-025CDT", "EPOCH": "2025-12-16T04:54:09.552672", "MEAN_MOTION": 14.71853982, "ECCENTRICITY": 0.01002743, "INCLINATION": 99.0477, "RA_OF_ASC_NODE": 262.5106, "ARG_OF_PERICENTER": 112.854, "MEAN_ANOMALY": 248.329, "EPHEMERIS_TYPE": 0, "CLASSIFICATION_TYPE": "U", "NORAD_CAT_ID": 31720, "ELEMENT_SET_NO": 999, "REV_AT_EPOCH": 98287, "BSTAR": 0.00049359601, "MEAN_MOTION_DOT": 3.276e-05, "MEAN_MOTION_DDOT": 0}, "tle": {"line1": "1 31720U 99025CDT 25350.20427723  .00003276  00000+0  49360-3 0  9992", "line2": "2 31720  99.0477 262.5106 0100274 112.8540 248.3290 14.71853982982878"}}, "geometry": {"type": "Point", "coordinates": [-142.2142704391849, 77.51513822113832]}}, {"type": "Feature", "properties": {"norad_id": 31721, "name": "FENGYUN 1C DEB", "group": "fengyun-1c-debris", "lat": -27.067850585200357, "lon": -23.83291938007299, "alt_km": 1211.9782790942018, "timestamp": "2025-12-17T09:00:17.432176+00:00", "meta": {"OBJECT_NAME": "FENGYUN 1C DEB", "OBJECT_ID": "1999-025CDU", "EPOCH": "2025-12-14T04:19:36.790752", "MEAN_MOTION": 13.73779302, "ECCENTRICITY": 0.03174412, "INCLINATION": 99.7811, "RA_OF_ASC_NODE": 327.8381, "ARG_OF_PERICENTER": 179.7828, "MEAN_ANOMALY": 199.0539, "EPHEMERIS_TYPE": 0, "CLASSIFICATION_TYPE": "U", "NORAD_CAT_ID": 31721, "ELEMENT_SET_NO": 999, "REV_AT_EPOCH": 67406, "BSTAR": 0.00045246287, "MEAN_MOTION_DOT": 5.63e-06, "MEAN_MOTION_DDOT": 0}, "tle": {"line1": "1 31721U 99025CDU 25348.18028693  .00000563  00000+0  45246-3 0  9995", "line2": "2 31721  99.7811 327.8381 0317441 179.7828 199.0539 13.73779302674066"}}, "geometry": {"type": "Point", "coordinates": [-23.83291938007299, -27.067850585200357]}}, {"type": "Feature", "properties": {"norad_id": 31724, "name": "FENGYUN 1C DEB", "group": "fengyun-1c-debris", "lat": -33.27594531001179, "lon": 2.2344747429714693, "alt_km": 749.0830353291667, "timestamp": "2025-12-17T09:00:17.432186+00:00", "meta": {"OBJECT_NAME": "FENGYUN 1C DEB", "OBJECT_ID": "1999-025CDX", "EPOCH": "2025-12-16T06:38:52.569312", "MEAN_MOTION": 14.49173964, "ECCENTRICITY": 0.01518621, "INCLINATION": 97.8539, "RA_OF_ASC_NODE": 356.0141, "ARG_OF_PERICENTER": 231.2157, "MEAN_ANOMALY": 127.5392, "EPHEMERIS_TYPE": 0, "CLASSIFICATION_TYPE": "U", "NORAD_CAT_ID": 31724, "ELEMENT_SET_NO": 999, "REV_AT_EPOCH": 64543, "BSTAR": 0.0016008711, "MEAN_MOTION_DOT": 7.016e-05, "MEAN_MOTION_DDOT": 0}, "tle": {"line1": "1 31724U 99025CDX 25350.27699733  .00007016  00000+0  16009-2 0  9994", "line2": "2 31724  97.8539 356.0141 0151862 231.2157 127.5392 14.49173964645433"}}, "geometry": {"type": "Point", "coordinates": [2.2344747429714693, -33.27594531001179]}}, {"type": "Feature", "properties": {"norad_id": 31725, "name": "FENGYUN 1C DEB", "group": "fengyun-1c-debris", "lat": -11.807201543419449, "lon": 25.5431292321942, "alt_km": 1690.9732767404403, "timestamp": "2025-12-17T09:00:17.432196+00:00", "meta": {"OBJECT_NAME": "FENGYUN 1C DEB", "OBJECT_ID": "1999-025CDY", "EPOCH": "2025-12-15T20:17:15.396576", "MEAN_MOTION": 12.7919775, "ECCENTRICITY": 0.06944809, "INCLINATION": 99.1805, "RA_OF_ASC_NODE": 206.2248, "ARG_OF_PERICENTER": 327.9275, "MEAN_ANOMALY": 28.1283, "EPHEMERIS_TYPE": 0, "CLASSIFICATION_TYPE": "U", "NORAD_CAT_ID": 31725, "ELEMENT_SET_NO": 999, "REV_AT_EPOCH": 86521, "BSTAR": 0.0024483269, "MEAN_MOTION_DOT": 1.493e-05, "MEAN_MOTION_DDOT": 0}, "tle": {"line1": "1 31725U 99025CDY 25349.84531709  .00001493  00000+0  24483-2 0  9992", "line2": "2 31725  99.1805 206.2248 0694480 327.9275  28.1283 12.79197750865216"}}, "geometry": {"type": "Point", "coordinates": [25.5431292321942, -11.807201543419449]}}, {"type": "Feature", "properties": {"norad_id": 31727, "name": "FENGYUN 1C DEB", "group": "fengyun-1c-debris", "lat": 46.947643668188775, "lon": -66.82238051686173, "alt_km": 786.4386529457306, "timestamp": "2025-12-17T09:00:17.432206+00:00", "meta": {"OBJECT_NAME": "FENGYUN 1C DEB", "OBJECT_ID": "1999-025CEA", "EPOCH": "2025-12-16T14:04:45.981984", "MEAN_MOTION": 14.37061584, "ECCENTRICITY": 0.00322916, "INCLINATION": 98.8646, "RA_OF_ASC_NODE": 102.7492, "ARG_OF_PERICENTER": 328.3079, "MEAN_ANOMALY": 46.6049, "EPHEMERIS_TYPE": 0, "CLASSIFICATION_TYPE": "U", "NORAD_CAT_ID": 31727, "ELEMENT_SET_NO": 999, "REV_AT_EPOCH": 71724, "BSTAR": 0.0014489816, "MEAN_MOTION_DOT": 4.282e-05, "MEAN_MOTION_DDOT": 0}, "tle": {"line1": "1 31727U 99025CEA 25350.58664331  .00004282  00000+0  14490-2 0  9991", "line2": "2 31727  98.8646 102.7492 0032291 328.3079  46.6049 14.37061584717246"}}, "geometry": {"type": "Point", "coordinates": [-66.82238051686173, 46.947643668188775]}}, {"type": "Feature", "properties": {"norad_id": 31731, "name": "FENGYUN 1C DEB", "group": "fengyun-1c-debris", "lat": 1.3975065652292689, "lon": 39.75416970128647, "alt_km": 759.3974556891735, "timestamp": "2025-12-17T09:00:17.432216+00:00", "meta": {"OBJECT_NAME": "FENGYUN 1C DEB", "OBJECT_ID": "1999-025CEE", "EPOCH": "2025-11-27T02:07:07.827456", "MEAN_MOTION": 14.40063792, "ECCENTRICITY": 0.00116613, "INCLINATION": 99.3084, "RA_OF_ASC_NODE": 17.9462, "ARG_OF_PERICENTER": 144.9647, "MEAN_ANOMALY": 215.2308, "EPHEMERIS_TYPE": 0, "CLASSIFICATION_TYPE": "U", "NORAD_CAT_ID": 31731, "ELEMENT_SET_NO": 999, "REV_AT_EPOCH": 95605, "BSTAR": 0.0018623031, "MEAN_MOTION_DOT": 5.831e-05, "MEAN_MOTION_DDOT": 0}, "tle": {"line1": "1 31731U 99025CEE 25331.08828504  .00005831  00000+0  18623-2 0  9997", "line2": "2 31731  99.3084  17.9462 0011661 144.9647 215.2308 14.40063792956051"}}, "geometry": {"type": "Point", "coordinates": [39.75416970128647, 1.3975065652292689]}}, {"type": "Feature", "properties": {"norad_id": 31732, "name": "FENGYUN 1C DEB", "group": "fengyun-1c-debris", "lat": 2.764737010202883, "lon": -153.65843434087705, "alt_km": 837.5965497356601, "timestamp": "2025-12-17T09:00:17.432226+00:00", "meta": {"OBJECT_NAME": "FENGYUN 1C DEB", "OBJECT_ID": "1999-025CEF", "EPOCH": "2025-12-16T08:21:37.463328", "MEAN_MOTION": 14.12258215, "ECCENTRICITY": 0.00397852, "INCLINATION": 98.5732, "RA_OF_ASC_NODE": 24.942, "ARG_OF_PERICENTER": 234.9781, "MEAN_ANOMALY": 124.7656, "EPHEMERIS_TYPE": 0, "CLASSIFICATION_TYPE": "U", "NORAD_CAT_ID": 31732, "ELEMENT_SET_NO": 999, "REV_AT_EPOCH": 64381, "BSTAR": 0.00031093861, "MEAN_MOTION_DOT": 5.34e-06, "MEAN_MOTION_DDOT": 0}, "tle": {"line1": "1 31732U 99025CEF 25350.34835027  .00000534  00000+0  31094-3 0  9999", "line2": "2 31732  98.5732  24.9420 0039785 234.9781 124.7656 14.12258215643813"}}, "geometry": {"type": "Point", "coordinates": [-153.65843434087705, 2.764737010202883]}}, {"type": "Feature", "properties": {"norad_id": 31734, "name": "FENGYUN 1C DEB", "group": "fengyun-1c-debris", "lat": 0.5018099001446688, "lon": -16.67694512373591, "alt_km": 723.6899437675029, "timestamp": "2025-12-17T09:00:17.432238+00:00", "meta": {"OBJECT_NAME": "FENGYUN 1C DEB", "OBJECT_ID": "1999-025CEH", "EPOCH": "2025-12-10T17:21:48.423168", "MEAN_MOTION": 14.29008825, "ECCENTRICITY": 0.01040397, "INCLINATION": 98.4988, "RA_OF_ASC_NODE": 336.9135, "ARG_OF_PERICENTER": 13.5368, "MEAN_ANOMALY": 346.8567, "EPHEMERIS_TYPE": 0, "CLASSIFICATION_TYPE": "U", "NORAD_CAT_ID": 31734, "ELEMENT_SET_NO": 999, "REV_AT_EPOCH": 96422, "BSTAR": 0.0007502923, "MEAN_MOTION_DOT": 1.97e-05, "MEAN_MOTION_DDOT": 0}, "tle": {"line1": "1 31734U 99025CEH 25344.72347712  .00001970  00000+0  75029-3 0  9996", "line2": "2 31734  98.4988 336.9135 0104039  13.5368 346.8567 14.29008825964220"}}, "geometry": {"type": "Point", "coordinates": [-16.67694512373591, 0.5018099001446688]}}]}